NORAD_CAT_ID,OBJECT_NAME,OBJECT_TYPE,EPOCH,MEAN_MOTION,ECCENTRICITY,INCLINATION,RA_OF_ASC_NODE,ARG_OF_PERICENTER,MEAN_ANOMALY,BSTAR,MEAN_MOTION_DOT,MEAN_MOTION_DDOT,TLE_LINE0,TLE_LINE1,TLE_LINE2,SEMIMAJOR_AXIS,PERIOD,APOGEE,PERIGEE,DECAYED
53004.0,STARLINK-4253,PAYLOAD,2022-10-24 14:00:01,15.08756654,0.0001525,53.2163,225.2509,53.9669,145.0467,0.0024135,0.00038244,0.0,0 STARLINK-4253,1 53004U 22076U   22297.58334491  .00038244  00000-0  24135-2 0  9996,2 53004  53.2163 225.2509 0001525  53.9669 145.0467 15.08756654  1308,6918.135,95.443,541.055,538.945,0.0
53004.0,STARLINK-4253,PAYLOAD,2022-10-24 16:00:00,15.08731523,0.0001533,53.2162,224.8765,56.5858,235.3136,0.0065503999999999,0.00105209,0.0,0 STARLINK-4253,1 53004U 22076U   22297.66667824  .00105209  00000-0  65504-2 0  9995,2 53004  53.2162 224.8765 0001533  56.5858 235.3136 15.08731523 17327,6918.212,95.444,541.138,539.016,0.0
53004.0,STARLINK-4253,PAYLOAD,2022-10-24 22:00:00,15.08807865,0.0001641,53.2165,223.7551,57.7216,152.7929,-0.00024247,-4.141e-05,0.0,0 STARLINK-4253,1 53004U 22076U   22297.91667824 -.00004141  00000-0 -24247-3 0  9998,2 53004  53.2165 223.7551 0001641  57.7216 152.7929 15.08807865  1308,6917.979,95.44,540.979,538.7080000000002,0.0
53004.0,STARLINK-4253,PAYLOAD,2022-10-25 06:00:00,15.08784437,0.0001766999999999,53.2165,222.2602,50.8135,171.2602,0.0035966,0.00057331,0.0,0 STARLINK-4253,1 53004U 22076U   22298.25001157  .00057331  00000-0  35966-2 0  9993,2 53004  53.2165 222.2602 0001767  50.8135 171.2602 15.08784437 17414,6918.05,95.441,541.138,538.693,0.0
53004.0,STARLINK-4253,PAYLOAD,2022-10-25 14:00:01,15.08806114,0.0001615,53.2167,220.7621,56.6869,176.9476,0.0019725999999999,0.00031216,0.0,0 STARLINK-4253,1 53004U 22076U   22298.58334491  .00031216  00000-0  19726-2 0  9999,2 53004  53.2167 220.7621 0001615  56.6869 176.9476 15.08806114  1309,6917.984,95.44,540.966,538.732,0.0
53004.0,STARLINK-4253,PAYLOAD,2022-10-25 22:00:01,15.0884302,0.0001684,53.2168,219.2664,58.2982,186.9609,-0.00085161,-0.00013817,0.0,0 STARLINK-4253,1 53004U 22076U   22298.91668981 -.00013817  00000-0 -85161-3 0  9996,2 53004  53.2168 219.2664 0001684  58.2982 186.9609 15.08843020 17516,6917.871,95.437,540.901,538.571,0.0
53004.0,STARLINK-4253,PAYLOAD,2022-10-26 14:00:01,15.08829014,0.0001636,53.2165,216.2732,59.1073,209.2814,0.0023905,0.00037951,0.0,0 STARLINK-4253,1 53004U 22076U   22299.58334491  .00037951  00000-0  23905-2 0  9996,2 53004  53.2165 216.2732 0001636  59.1073 209.2814 15.08829014  1308,6917.9140000000025,95.438,540.911,538.6469999999998,0.0
53004.0,STARLINK-4253,PAYLOAD,2022-10-26 22:00:00,15.08875119,0.0001676999999999,53.2165,214.7777,59.6011,220.3836,-0.0016303,-0.00026166,0.0,0 STARLINK-4253,1 53004U 22076U   22299.91667824 -.00026166  00000-0 -16303-2 0  9994,2 53004  53.2165 214.7777 0001677  59.6011 220.3836 15.08875119 17663,6917.773,95.435,540.798,538.4780000000002,0.0
53004.0,STARLINK-4253,PAYLOAD,2022-10-27 14:00:01,15.08843997,0.0001583,53.2159,211.7842,60.0692,243.232,0.0010232,0.00016036,0.0,0 STARLINK-4253,1 53004U 22076U   22300.58335648  .00016036  00000-0  10232-2 0  9994,2 53004  53.2159 211.7842 0001583  60.0692 243.2320 15.08843997  1308,6917.868,95.437,540.828,538.638,0.0
53004.0,STARLINK-4253,PAYLOAD,2022-10-27 22:00:00,15.08854988,0.0001712,53.2157,210.2888,60.9361,253.9108,-0.0012027,-0.00019386,0.0,0 STARLINK-4253,1 53004U 22076U   22300.91667824 -.00019386  00000-0 -12027-2 0  9992,2 53004  53.2157 210.2888 0001712  60.9361 253.9108 15.08854988  1300,6917.835,95.437,540.884,538.515,0.0
53004.0,STARLINK-4253,PAYLOAD,2022-10-28 14:00:01,15.08813208,0.0001575999999999,53.2149,207.2951,62.0838,276.0631,0.0036073,0.00057549,0.0,0 STARLINK-4253,1 53004U 22076U   22301.58335648  .00057549  00000-0  36073-2 0  9990,2 53004  53.2149 207.2951 0001576  62.0838 276.0631 15.08813208  1305,6917.962,95.439,540.918,538.737,0.0
53004.0,STARLINK-4253,PAYLOAD,2022-10-28 22:00:01,15.08876834,0.0001592,53.2149,205.7998,58.7511,290.9779,-0.0042913999999999,-0.0006801,0.0,0 STARLINK-4253,1 53004U 22076U   22301.91668981 -.00068010  00000-0 -42914-2 0  9994,2 53004  53.2149 205.7998 0001592  58.7511 290.9779 15.08876834  1309,6917.768,95.435,540.734,538.531,0.0
53004.0,STARLINK-4253,PAYLOAD,2022-10-29 00:00:02,15.08863356,0.0001631999999999,53.2147,205.4262,56.6211,26.0158,-0.0037611,-0.00059689,0.0,0 STARLINK-4253,1 53004U 22076U   22302.00002315 -.00059689  00000-0 -37611-2 0  9998,2 53004  53.2147 205.4262 0001632  56.6211  26.0158 15.08863356 17971,6917.809,95.436,540.803,538.545,0.0
53004.0,STARLINK-4253,PAYLOAD,2022-10-29 12:00:00,15.0880753,0.0001418,53.2145,203.1804,56.6376,223.3276,0.0013879,0.0002185,0.0,0 STARLINK-4253,1 53004U 22076U   22302.50001157  .00021850  00000-0  13879-2 0  9993,2 53004  53.2145 203.1804 0001418  56.6376 223.3276 15.08807530  1305,6917.98,95.44,540.826,538.864,0.0
53004.0,STARLINK-4253,PAYLOAD,2022-10-29 22:00:01,15.08873899,0.0001547,53.2143,201.3106,55.8779,328.6566,-0.0014073,-0.00022636,0.0,0 STARLINK-4253,1 53004U 22076U   22302.91668981 -.00022636  00000-0 -14073-2 0  9994,2 53004  53.2143 201.3106 0001547  55.8779 328.6566 15.08873899  1301,6917.776999999999,95.435,540.712,538.572,0.0
53004.0,STARLINK-4253,PAYLOAD,2022-10-30 00:00:00,15.08874534,0.0001614,53.2142,200.9369,54.76,62.6183,-0.0019295999999999,-0.00030895,0.0,0 STARLINK-4253,1 53004U 22076U   22303.00001157 -.00030895  00000-0 -19296-2 0  9999,2 53004  53.2142 200.9369 0001614  54.7600  62.6183 15.08874534 18138,6917.775,95.435,540.756,538.523,0.0
53004.0,STARLINK-4253,PAYLOAD,2022-10-30 14:00:01,15.08862041,0.0001419999999999,53.2156,198.3169,53.8431,353.8442,-0.0095366,-0.00149029,0.0,0 STARLINK-4253,1 53004U 22076U   22303.58334491 -.00149029  00000-0 -95366-2 0  9994,2 53004  53.2156 198.3169 0001420  53.8431 353.8442 15.08862041  1302,6917.813,95.436,540.66,538.696,0.0
53004.0,STARLINK-4253,PAYLOAD,2022-10-30 22:00:01,15.08823691,0.0001517,53.2143,196.8213,51.9081,7.4078,-0.00050429,-8.301e-05,0.0,0 STARLINK-4253,1 53004U 22076U   22303.91668981 -.00008301  00000-0 -50429-3 0  9994,2 53004  53.2143 196.8213 0001517  51.9081   7.4078 15.08823691  1303,6917.93,95.439,540.845,538.746,0.0
53004.0,STARLINK-4253,PAYLOAD,2022-10-31 14:00:01,15.08824527,0.0001491,53.2146,193.8271,55.8513,26.5666,0.00095685,0.00014967,0.0,0 STARLINK-4253,1 53004U 22076U   22304.58334491  .00014967  00000-0  95685-3 0  9990,2 53004  53.2146 193.8271 0001491  55.8513  26.5666 15.08824527  1305,6917.928000000001,95.439,540.8240000000002,538.761,0.0
53004.0,STARLINK-4253,PAYLOAD,2022-10-31 22:00:01,15.08850239,0.0001658,53.2148,192.332,53.4122,40.6515,-0.0031796999999999,-0.00050553,0.0,0 STARLINK-4253,1 53004U 22076U   22304.91668981 -.00050553  00000-0 -31797-2 0  9997,2 53004  53.2148 192.3320 0001658  53.4122  40.6515 15.08850239  1300,6917.849,95.437,540.861,538.567,0.0
53004.0,STARLINK-4253,PAYLOAD,2022-11-01 00:00:02,15.08828315,0.0001685,53.2148,191.9583,51.5368,135.4303,-0.00085152,-0.0001381,0.0,0 STARLINK-4253,1 53004U 22076U   22305.00002315 -.00013810  00000-0 -85152-3 0  9991,2 53004  53.2148 191.9583 0001685  51.5368 135.4303 15.08828315 18437,6917.916,95.438,540.947,538.615,0.0
53004.0,STARLINK-4253,PAYLOAD,2022-11-01 14:00:01,15.0881707,0.0001539,53.2152,189.3378,56.0393,61.1333,0.0031976999999999,0.00050939,0.0,0 STARLINK-4253,1 53004U 22076U   22305.58334491  .00050939  00000-0  31977-2 0  9993,2 53004  53.2152 189.3378 0001539  56.0393  61.1333 15.08817070 18525,6917.95,95.439,540.88,538.751,0.0
53004.0,STARLINK-4253,PAYLOAD,2022-11-01 22:00:00,15.08855171,0.0001725,53.2154,187.8429,53.4716,75.2927,-0.0030916,-0.00049176,0.0,0 STARLINK-4253,1 53004U 22076U   22305.91667824 -.00049176  00000-0 -30916-2 0  9994,2 53004  53.2154 187.8429 0001725  53.4716  75.2927 15.08855171  1301,6917.834,95.437,540.8919999999998,538.506,0.0
53004.0,STARLINK-4253,PAYLOAD,2022-11-02 06:00:00,15.08829539,0.0001708,53.2153,186.3465,50.6122,89.7427,-0.00091448,-0.00014808,0.0,0 STARLINK-4253,1 53004U 22076U   22306.25001157 -.00014808  00000-0 -91448-3 0  9995,2 53004  53.2153 186.3465 0001708  50.6122  89.7427 15.08829539 18622,6917.9119999999975,95.438,540.9590000000002,538.596,0.0
53004.0,STARLINK-4253,PAYLOAD,2022-11-02 14:00:01,15.0880499,0.0001527,53.2158,184.8489,58.6194,93.3159,0.003374,0.00053767,0.0,0 STARLINK-4253,1 53004U 22076U   22306.58334491  .00053767  00000-0  33740-2 0  9996,2 53004  53.2158 184.8489 0001527  58.6194  93.3159 15.08804990  1306,6917.986999999999,95.44,540.909,538.7959999999998,0.0
53004.0,STARLINK-4253,PAYLOAD,2022-11-02 18:00:02,15.08844538,0.0001546,53.2163,184.1013,59.9756,277.7994,-0.00014732,-2.632e-05,0.0,0 STARLINK-4253,1 53004U 22076U   22306.75002315 -.00002632  00000-0 -14732-3 0  9990,2 53004  53.2163 184.1013 0001546  59.9756 277.7994 15.08844538 18694,6917.8669999999975,95.437,540.8009999999998,538.6619999999998,0.0
53004.0,STARLINK-4253,PAYLOAD,2022-11-03 02:02:53,15.08827813,0.0001557,53.2167,182.5949,67.3563,292.7594,-1.5080999999999992e-05,-5.28e-06,0.0,0 STARLINK-4253,1 53004U 22076U   22307.08533609 -.00000528  00000-0 -15081-4 0  9993,2 53004  53.2167 182.5949 0001557  67.3563 292.7594 15.08827813 18745,6917.918000000002,95.438,540.86,538.706,0.0
53004.0,STARLINK-4253,PAYLOAD,2022-11-04 01:53:38,15.08851684,0.0001646,53.2176,178.1342,63.7578,296.3583,9.4767e-05,1.221e-05,0.0,0 STARLINK-4253,1 53004U 22076U   22308.07891938  .00001221  00000-0  94767-4 0  9992,2 53004  53.2176 178.1342 0001646  63.7578 296.3583 15.08851684 18895,6917.845,95.437,540.8480000000002,538.571,0.0
53004.0,STARLINK-4253,PAYLOAD,2022-11-04 08:15:11,15.08838502,0.000176,53.219,176.94400000000005,62.1566,297.9604,0.00021359,3.113e-05,0.0,0 STARLINK-4253,1 53004U 22076U   22308.34388505  .00003113  00000-0  21359-3 0  9991,2 53004  53.2190 176.9440 0001760  62.1566 297.9604 15.08838502 18933,6917.885,95.438,540.9680000000002,538.5319999999998,0.0
